[{"OBJECT_NAME":"SORAYA","OBJECT_ID":"2024-015A","EPOCH":"2026-03-09T23:47:27.347136","MEAN_MOTION":14.4267567,"ECCENTRICITY":0.00145543,"INCLINATION":64.5174,"RA_OF_ASC_NODE":9.0228,"ARG_OF_PERICENTER":231.7358,"MEAN_ANOMALY":128.2419,"EPHEMERIS_TYPE":0,"CLASSIFICATION_TYPE":"U","NORAD_CAT_ID":58817,"ELEMENT_SET_NO":999,"REV_AT_EPOCH":11246,"BSTAR":9.0214372e-5,"MEAN_MOTION_DOT":1.94e-6,"MEAN_MOTION_DDOT":0},{"OBJECT_NAME":"FENGYUN 1C DEB","OBJECT_ID":"1999-025WR","EPOCH":"2026-03-09T02:28:06.081024","MEAN_MOTION":14.64574879,"ECCENTRICITY":0.01347069,"INCLINATION":98.6915,"RA_OF_ASC_NODE":278.0576,"ARG_OF_PERICENTER":81.9787,"MEAN_ANOMALY":39.5905,"EPHEMERIS_TYPE":0,"CLASSIFICATION_TYPE":"U","NORAD_CAT_ID":30232,"ELEMENT_SET_NO":999,"REV_AT_EPOCH":1012,"BSTAR":0.00076747962,"MEAN_MOTION_DOT":4.596e-5,"MEAN_MOTION_DDOT":0}]
